{
  "type": "FeatureCollection",
  "features": [
    {
      "type": "Feature",
      "properties": {
        "norad_id": 38709,
        "name": "EXACTVIEW-1 (ADS-1B)",
        "group": "resource",
        "lat": 57.79198260693307,
        "lon": -80.94239088845636,
        "alt_km": 804.2234727429741,
        "timestamp": "2025-12-02T08:59:32.376498+00:00",
        "meta_object_name": "EXACTVIEW-1 (ADS-1B)",
        "meta_object_id": "2012-039C",
        "meta_epoch": "2025-12-02T05:03:24.092064",
        "meta_mean_motion": 14.24900615,
        "meta_eccentricity": 0.00112,
        "meta_inclination": 98.9634,
        "meta_ra_of_asc_node": 84.38,
        "meta_arg_of_pericenter": 24.254,
        "meta_mean_anomaly": 335.9164,
        "meta_ephemeris_type": 0,
        "meta_classification_type": "U",
        "meta_norad_cat_id": 38709,
        "meta_element_set_no": 999,
        "meta_rev_at_epoch": 69465,
        "meta_bstar": 9.2164e-05,
        "meta_mean_motion_dot": 1.69e-06,
        "meta_mean_motion_ddot": 0,
        "tle_line1": "1 38709U 12039C   25336.21069551  .00000169  00000+0  92164-4 0  9991",
        "tle_line2": "2 38709  98.9634  84.3800 0011200  24.2540 335.9164 14.24900615694655"
      },
      "geometry": {
        "type": "Point",
        "coordinates": [
          -80.94239088845636,
          57.79198260693307
        ]
      }
    },
    {
      "type": "Feature",
      "properties": {
        "norad_id": 38755,
        "name": "SPOT 6",
        "group": "resource",
        "lat": -25.36754184595063,
        "lon": 45.249496271105116,
        "alt_km": 703.7742979126706,
        "timestamp": "2025-12-02T08:59:32.376508+00:00",
        "meta_object_name": "SPOT 6",
        "meta_object_id": "2012-047A",
        "meta_epoch": "2025-12-02T04:10:13.582848",
        "meta_mean_motion": 14.58586441,
        "meta_eccentricity": 0.0001029,
        "meta_inclination": 98.1586,
        "meta_ra_of_asc_node": 41.152,
        "meta_arg_of_pericenter": 99.641,
        "meta_mean_anomaly": 260.4905,
        "meta_ephemeris_type": 0,
        "meta_classification_type": "U",
        "meta_norad_cat_id": 38755,
        "meta_element_set_no": 999,
        "meta_rev_at_epoch": 70433,
        "meta_bstar": 0.00011388,
        "meta_mean_motion_dot": 4.84e-06,
        "meta_mean_motion_ddot": 0,
        "tle_line1": "1 38755U 12047A   25336.17376832  .00000484  00000+0  11388-3 0  9997",
        "tle_line2": "2 38755  98.1586  41.1520 0001029  99.6410 260.4905 14.58586441704330"
      },
      "geometry": {
        "type": "Point",
        "coordinates": [
          45.249496271105116,
          -25.36754184595063
        ]
      }
    },
    {
      "type": "Feature",
      "properties": {
        "norad_id": 39019,
        "name": "PLEIADES 1B",
        "group": "resource",
        "lat": -54.15875255716398,
        "lon": -142.29784169185157,
        "alt_km": 705.6655366761461,
        "timestamp": "2025-12-02T08:59:32.376518+00:00",
        "meta_object_name": "PLEIADES 1B",
        "meta_object_id": "2012-068A",
        "meta_epoch": "2025-12-02T04:37:32.507904",
        "meta_mean_motion": 14.58535662,
        "meta_eccentricity": 0.000126,
        "meta_inclination": 98.1806,
        "meta_ra_of_asc_node": 49.0105,
        "meta_arg_of_pericenter": 88.1156,
        "meta_mean_anomaly": 272.0188,
        "meta_ephemeris_type": 0,
        "meta_classification_type": "U",
        "meta_norad_cat_id": 39019,
        "meta_element_set_no": 999,
        "meta_rev_at_epoch": 69213,
        "meta_bstar": 0.00011617,
        "meta_mean_motion_dot": 4.94e-06,
        "meta_mean_motion_ddot": 0,
        "tle_line1": "1 39019U 12068A   25336.19273736  .00000494  00000+0  11617-3 0  9991",
        "tle_line2": "2 39019  98.1806  49.0105 0001260  88.1156 272.0188 14.58535662692137"
      },
      "geometry": {
        "type": "Point",
        "coordinates": [
          -142.29784169185157,
          -54.15875255716398
        ]
      }
    },
    {
      "type": "Feature",
      "properties": {
        "norad_id": 39030,
        "name": "GOKTURK 2",
        "group": "resource",
        "lat": -7.163310263930903,
        "lon": -2.435529143052703,
        "alt_km": 648.2631900059532,
        "timestamp": "2025-12-02T08:59:32.376529+00:00",
        "meta_object_name": "GOKTURK 2",
        "meta_object_id": "2012-073A",
        "meta_epoch": "2025-12-02T03:15:48.456864",
        "meta_mean_motion": 14.75266602,
        "meta_eccentricity": 7.92e-05,
        "meta_inclination": 97.69,
        "meta_ra_of_asc_node": 178.3106,
        "meta_arg_of_pericenter": 92.3249,
        "meta_mean_anomaly": 267.8051,
        "meta_ephemeris_type": 0,
        "meta_classification_type": "U",
        "meta_norad_cat_id": 39030,
        "meta_element_set_no": 999,
        "meta_rev_at_epoch": 69545,
        "meta_bstar": 0.00012326,
        "meta_mean_motion_dot": 7.87e-06,
        "meta_mean_motion_ddot": 0,
        "tle_line1": "1 39030U 12073A   25336.13597751  .00000787  00000+0  12326-3 0  9993",
        "tle_line2": "2 39030  97.6900 178.3106 0000792  92.3249 267.8051 14.75266602695458"
      },
      "geometry": {
        "type": "Point",
        "coordinates": [
          -2.435529143052703,
          -7.163310263930903
        ]
      }
    },
    {
      "type": "Feature",
      "properties": {
        "norad_id": 39084,
        "name": "LANDSAT 8",
        "group": "resource",
        "lat": 78.26944030867912,
        "lon": -91.35897278416331,
        "alt_km": 694.4077634281002,
        "timestamp": "2025-12-02T08:59:32.376539+00:00",
        "meta_object_name": "LANDSAT 8",
        "meta_object_id": "2013-008A",
        "meta_epoch": "2025-12-02T03:35:54.096288",
        "meta_mean_motion": 14.57122923,
        "meta_eccentricity": 0.0001077,
        "meta_inclination": 98.2085,
        "meta_ra_of_asc_node": 44.3791,
        "meta_arg_of_pericenter": 88.3158,
        "meta_mean_anomaly": 271.8164,
        "meta_ephemeris_type": 0,
        "meta_classification_type": "U",
        "meta_norad_cat_id": 39084,
        "meta_element_set_no": 999,
        "meta_rev_at_epoch": 66920,
        "meta_bstar": 0.00012533,
        "meta_mean_motion_dot": 5.2e-06,
        "meta_mean_motion_ddot": 0,
        "tle_line1": "1 39084U 13008A   25336.14993167  .00000520  00000+0  12533-3 0  9998",
        "tle_line2": "2 39084  98.2085  44.3791 0001077  88.3158 271.8164 14.57122923669202"
      },
      "geometry": {
        "type": "Point",
        "coordinates": [
          -91.35897278416331,
          78.26944030867912
        ]
      }
    },
    {
      "type": "Feature",
      "properties": {
        "norad_id": 39086,
        "name": "SARAL",
        "group": "resource",
        "lat": -81.3365958287007,
        "lon": -118.6538554967583,
        "alt_km": 791.3636116950502,
        "timestamp": "2025-12-02T08:59:32.376550+00:00",
        "meta_object_name": "SARAL",
        "meta_object_id": "2013-009A",
        "meta_epoch": "2025-12-02T04:22:39.142272",
        "meta_mean_motion": 14.32750887,
        "meta_eccentricity": 0.0002585,
        "meta_inclination": 98.5507,
        "meta_ra_of_asc_node": 160.2504,
        "meta_arg_of_pericenter": 128.967,
        "meta_mean_anomaly": 231.1745,
        "meta_ephemeris_type": 0,
        "meta_classification_type": "U",
        "meta_norad_cat_id": 39086,
        "meta_element_set_no": 999,
        "meta_rev_at_epoch": 66739,
        "meta_bstar": 8.2565e-05,
        "meta_mean_motion_dot": 1.81e-06,
        "meta_mean_motion_ddot": 0,
        "tle_line1": "1 39086U 13009A   25336.18239748  .00000181  00000+0  82565-4 0  9999",
        "tle_line2": "2 39086  98.5507 160.2504 0002585 128.9670 231.1745 14.32750887667392"
      },
      "geometry": {
        "type": "Point",
        "coordinates": [
          -118.6538554967583,
          -81.3365958287007
        ]
      }
    },
    {
      "type": "Feature",
      "properties": {
        "norad_id": 39150,
        "name": "GAOFEN-1",
        "group": "resource",
        "lat": -38.51577768808848,
        "lon": -139.15587112250248,
        "alt_km": 637.8558260742775,
        "timestamp": "2025-12-02T08:59:32.376560+00:00",
        "meta_object_name": "GAOFEN-1",
        "meta_object_id": "2013-018A",
        "meta_epoch": "2025-12-02T04:45:06.759360",
        "meta_mean_motion": 14.76502614,
        "meta_eccentricity": 0.001756,
        "meta_inclination": 97.9339,
        "meta_ra_of_asc_node": 47.0431,
        "meta_arg_of_pericenter": 176.1838,
        "meta_mean_anomaly": 183.9509,
        "meta_ephemeris_type": 0,
        "meta_classification_type": "U",
        "meta_norad_cat_id": 39150,
        "meta_element_set_no": 999,
        "meta_rev_at_epoch": 67917,
        "meta_bstar": 0.00014963,
        "meta_mean_motion_dot": 9.94e-06,
        "meta_mean_motion_ddot": 0,
        "tle_line1": "1 39150U 13018A   25336.19799490  .00000994  00000+0  14963-3 0  9995",
        "tle_line2": "2 39150  97.9339  47.0431 0017560 176.1838 183.9509 14.76502614679173"
      },
      "geometry": {
        "type": "Point",
        "coordinates": [
          -139.15587112250248,
          -38.51577768808848
        ]
      }
    }
  ]
}